STARLINK-37199          
1 68327U 26059G   26090.66668981  .00112037  00000+0  56553-3 0  9995
2 68327  53.1596 252.6988 0001052  96.8453 137.4335 15.80807748  2578
